[{"OBJECT_NAME":"IRIDIUM 33 DEB","OBJECT_ID":"1997-051ZR","EPOCH":"2026-03-05T23:33:02.494368","MEAN_MOTION":14.55528801,"ECCENTRICITY":0.00047597,"INCLINATION":86.3233,"RA_OF_ASC_NODE":313.8754,"ARG_OF_PERICENTER":113.3476,"MEAN_ANOMALY":246.8233,"EPHEMERIS_TYPE":0,"CLASSIFICATION_TYPE":"U","NORAD_CAT_ID":38241,"ELEMENT_SET_NO":999,"REV_AT_EPOCH":61411,"BSTAR":0.0006958397,"MEAN_MOTION_DOT":3.05e-5,"MEAN_MOTION_DDOT":0},{"OBJECT_NAME":"IRIDIUM 33 DEB","OBJECT_ID":"1997-051AAB","EPOCH":"2026-02-23T12:18:19.545408","MEAN_MOTION":14.51138309,"ECCENTRICITY":0.0024339,"INCLINATION":86.3472,"RA_OF_ASC_NODE":338.3518,"ARG_OF_PERICENTER":199.6569,"MEAN_ANOMALY":160.3701,"EPHEMERIS_TYPE":0,"CLASSIFICATION_TYPE":"U","NORAD_CAT_ID":38474,"ELEMENT_SET_NO":999,"REV_AT_EPOCH":66373,"BSTAR":0.00065939086,"MEAN_MOTION_DOT":2.644e-5,"MEAN_MOTION_DDOT":0},{"OBJECT_NAME":"IRIDIUM 33 DEB","OBJECT_ID":"1997-051AAJ","EPOCH":"2026-03-06T03:37:32.991456","MEAN_MOTION":14.58825298,"ECCENTRICITY":0.00565422,"INCLINATION":85.9605,"RA_OF_ASC_NODE":134.5003,"ARG_OF_PERICENTER":261.7165,"MEAN_ANOMALY":97.7629,"EPHEMERIS_TYPE":0,"CLASSIFICATION_TYPE":"U","NORAD_CAT_ID":39777,"ELEMENT_SET_NO":999,"REV_AT_EPOCH":61400,"BSTAR":0.0026832419,"MEAN_MOTION_DOT":0.00012861,"MEAN_MOTION_DDOT":0},{"OBJECT_NAME":"IRIDIUM 33 DEB","OBJECT_ID":"1997-051AAK","EPOCH":"2026-03-05T19:17:49.697088","MEAN_MOTION":14.5507225,"ECCENTRICITY":0.00097365,"INCLINATION":86.3823,"RA_OF_ASC_NODE":7.143,"ARG_OF_PERICENTER":97.6092,"MEAN_ANOMALY":262.6221,"EPHEMERIS_TYPE":0,"CLASSIFICATION_TYPE":"U","NORAD_CAT_ID":39778,"ELEMENT_SET_NO":999,"REV_AT_EPOCH":61900,"BSTAR":0.0013983533,"MEAN_MOTION_DOT":6.054e-5,"MEAN_MOTION_DDOT":0},{"OBJECT_NAME":"IRIDIUM 33 DEB","OBJECT_ID":"1997-051ABJ","EPOCH":"2026-03-01T17:17:38.518080","MEAN_MOTION":15.03751251,"ECCENTRICITY":0.00111101,"INCLINATION":86.3492,"RA_OF_ASC_NODE":324.3002,"ARG_OF_PERICENTER":100.8093,"MEAN_ANOMALY":289.403,"EPHEMERIS_TYPE":0,"CLASSIFICATION_TYPE":"U","NORAD_CAT_ID":40996,"ELEMENT_SET_NO":999,"REV_AT_EPOCH":63672,"BSTAR":0.0033887555,"MEAN_MOTION_DOT":0.00046825,"MEAN_MOTION_DDOT":0},{"OBJECT_NAME":"IRIDIUM 33 DEB","OBJECT_ID":"1997-051ABL","EPOCH":"2026-03-06T03:25:04.352736","MEAN_MOTION":14.45445631,"ECCENTRICITY":0.00081174,"INCLINATION":86.3859,"RA_OF_ASC_NODE":18.0087,"ARG_OF_PERICENTER":144.7587,"MEAN_ANOMALY":271.8155,"EPHEMERIS_TYPE":0,"CLASSIFICATION_TYPE":"U","NORAD_CAT_ID":40998,"ELEMENT_SET_NO":999,"REV_AT_EPOCH":7886,"BSTAR":0.00066052228,"MEAN_MOTION_DOT":2.345e-5,"MEAN_MOTION_DDOT":0},{"OBJECT_NAME":"IRIDIUM 33 DEB","OBJECT_ID":"1997-051ABX","EPOCH":"2026-03-05T15:09:14.031360","MEAN_MOTION":14.61027741,"ECCENTRICITY":0.0020944,"INCLINATION":86.333,"RA_OF_ASC_NODE":303.9282,"ARG_OF_PERICENTER":47.4459,"MEAN_ANOMALY":342.3534,"EPHEMERIS_TYPE":0,"CLASSIFICATION_TYPE":"U","NORAD_CAT_ID":46965,"ELEMENT_SET_NO":999,"REV_AT_EPOCH":63478,"BSTAR":0.00082387,"MEAN_MOTION_DOT":4.076e-5,"MEAN_MOTION_DDOT":0},{"OBJECT_NAME":"IRIDIUM 33 DEB","OBJECT_ID":"1997-051ACD","EPOCH":"2026-02-15T04:06:14.442336","MEAN_MOTION":15.0282309,"ECCENTRICITY":0.00183243,"INCLINATION":86.3384,"RA_OF_ASC_NODE":302.6959,"ARG_OF_PERICENTER":121.5358,"MEAN_ANOMALY":29.3036,"EPHEMERIS_TYPE":0,"CLASSIFICATION_TYPE":"U","NORAD_CAT_ID":46971,"ELEMENT_SET_NO":999,"REV_AT_EPOCH":65196,"BSTAR":0.0024316654,"MEAN_MOTION_DOT":0.00032805,"MEAN_MOTION_DDOT":0},{"OBJECT_NAME":"IRIDIUM 33 DEB","OBJECT_ID":"1997-051ACE","EPOCH":"2026-02-13T16:21:13.155264","MEAN_MOTION":14.51029384,"ECCENTRICITY":0.00070915,"INCLINATION":86.39,"RA_OF_ASC_NODE":12.2992,"ARG_OF_PERICENTER":258.5659,"MEAN_ANOMALY":223.6549,"EPHEMERIS_TYPE":0,"CLASSIFICATION_TYPE":"U","NORAD_CAT_ID":46972,"ELEMENT_SET_NO":999,"REV_AT_EPOCH":62485,"BSTAR":0.00064339815,"MEAN_MOTION_DOT":2.565e-5,"MEAN_MOTION_DDOT":0},{"OBJECT_NAME":"IRIDIUM 33 DEB","OBJECT_ID":"1997-051ACG","EPOCH":"2026-02-19T19:32:51.839232","MEAN_MOTION":14.46114347,"ECCENTRICITY":0.0088187,"INCLINATION":86.296,"RA_OF_ASC_NODE":75.0684,"ARG_OF_PERICENTER":318.574,"MEAN_ANOMALY":40.8797,"EPHEMERIS_TYPE":0,"CLASSIFICATION_TYPE":"U","NORAD_CAT_ID":46974,"ELEMENT_SET_NO":999,"REV_AT_EPOCH":58506,"BSTAR":0.0022535,"MEAN_MOTION_DOT":8.465e-5,"MEAN_MOTION_DDOT":0}]
